MEAN_MOTION;ECCENTRICITY;INCLINATION;RA_OF_ASC_NODE;ARG_OF_PERICENTER;MEAN_ANOMALY;BSTAR;MEAN_MOTION_DOT;MEAN_MOTION_DDOT;TYPE
14.22164665;0.0008892;98.6868;84.5737;309.6874;50.3519;4.3255E-5;5.2E-7;0;Amateur
14.2216469;0.000889;98.6868;84.643;309.4641;50.575;4.3707E-5;5.3E-7;0;Amateur
14.22164856;0.0008849;98.6868;85.5441;306.5001;53.5361;4.3507E-5;5.3E-7;0;Amateur
14.22165017;0.0008815;98.6869;86.0986;304.6111;55.4235;4.5392E-5;5.7E-7;0;Amateur
14.22165053;0.0008802;98.6868;86.5145;303.2354;56.7979;4.3256E-5;5.2E-7;0;Amateur
14.22165167;0.0008792;98.6869;87.069;301.5092;58.5226;4.3484E-5;5.3E-7;0;Amateur
14.22165246;0.0008782;98.6868;87.5542;299.928;60.1025;4.2919E-5;5.1E-7;0;Amateur
14.22165357;0.0008765;98.6869;88.0395;298.3243;61.705;4.3158E-5;5.2E-7;0;Amateur
14.22165549;0.0008743;98.6869;89.0099;295.1652;64.8619;4.2017E-5;4.9E-7;0;Amateur
14.2216562;0.0008725;98.6869;89.4951;293.4685;66.5575;3.9551E-5;4.4E-7;0;Amateur
14.22165746;0.000872;98.6869;90.119;291.5278;68.497;3.8349E-5;4.1E-7;0;Amateur
14.22165813;0.0008716;98.6869;90.4656;290.3918;69.6323;3.7725E-5;4.0E-7;0;Amateur
14.22165909;0.0008698;98.6869;91.2281;287.85;72.1729;3.4754E-5;3.3E-7;0;Amateur
14.22165943;0.0008696;98.6869;91.436;287.1606;72.862;3.4472E-5;3.3E-7;0;Amateur
14.22166049;0.0008677;98.6869;92.3372;284.0682;75.9531;3.1825E-5;2.7E-7;0;Amateur
14.22166063;0.0008676;98.6869;92.4064;283.8705;76.1507;3.1938E-5;2.7E-7;0;Amateur
14.22166198;0.0008664;98.6868;93.3076;280.8172;79.2031;3.2462E-5;2.8E-7;0;Amateur
14.22166255;0.0008659;98.6868;93.6542;279.6325;80.3875;3.2571E-5;2.8E-7;0;Amateur
14.2216638;0.0008653;98.6868;94.4167;277.1655;82.8538;3.425E-5;3.2E-7;0;Amateur
14.2216647;0.0008647;98.6868;94.9019;275.5552;84.464;3.5095E-5;3.4E-7;0;Amateur
14.22166497;0.0008649;98.6868;95.3872;273.9576;86.0613;3.2354E-5;2.8E-7;0;Amateur
14.22166601;0.0008647;98.6868;95.9417;272.0522;87.9665;3.3736E-5;3.1E-7;0;Amateur
14.22166613;0.0008647;98.6868;96.011;271.8284;88.1903;3.4183E-5;3.2E-7;0;Amateur
14.22166617;0.0008647;98.6868;96.0803;271.5975;88.4213;3.4453E-5;3.3E-7;0;Amateur
14.2216675;0.0008648;98.6868;96.9814;268.6798;91.3389;3.6826E-5;3.8E-7;0;Amateur
14.22166743;0.0008648;98.6868;97.0507;268.4561;91.5626;3.6366E-5;3.7E-7;0;Amateur
14.22166791;0.0008651;98.6867;97.328;267.5287;92.49;3.7614E-5;4.0E-7;0;Amateur
14.22166947;0.0008651;98.6867;98.0212;265.2318;94.7872;4.1191E-5;4.8E-7;0;Amateur
14.22167018;0.0008655;98.6867;98.3677;264.0627;95.9565;4.24E-5;5.0E-7;0;Amateur
14.22167169;0.000867;98.6867;99.3382;260.8689;99.1508;3.9673E-5;4.4E-7;0;Amateur
14.22167205;0.0008672;98.6867;99.5461;260.1665;99.8534;3.9581E-5;4.4E-7;0;Amateur
14.22167313;0.0008678;98.6867;100.17;258.0879;101.9326;3.9367E-5;4.4E-7;0;Amateur
14.22167449;0.0008688;98.6866;100.9325;255.553;104.4684;3.8946E-5;4.3E-7;0;Amateur
14.22167487;0.0008695;98.6866;101.279;254.4271;105.5947;3.8278E-5;4.1E-7;0;Amateur
14.22167639;0.0008705;98.6866;101.9722;252.1258;107.897;4.0543E-5;4.6E-7;0;Amateur
14.22167841;0.0008732;98.6865;103.1506;248.0984;111.9265;3.876E-5;4.2E-7;0;Amateur
14.22167877;0.0008735;98.6865;103.2892;247.6498;112.3754;3.8546E-5;4.2E-7;0;Amateur
14.22168002;0.0008764;98.6865;104.2596;244.3661;115.6612;3.3728E-5;3.1E-7;0;Amateur
14.22168057;0.0008763;98.6865;104.3289;244.1888;115.8386;3.5715E-5;3.5E-7;0;Amateur
14.22168183;0.0008769;98.6865;104.8835;242.4321;117.5966;3.6615E-5;3.7E-7;0;Amateur
14.22168233;0.000878;98.6865;105.2301;241.2974;118.7322;3.6001E-5;3.6E-7;0;Amateur
14.22168347;0.0008804;98.6865;105.8539;239.146;120.8852;3.56E-5;3.5E-7;0;Amateur
14.22168393;0.0008817;98.6865;106.2005;238.0253;122.0068;3.5459E-5;3.5E-7;0;Amateur
14.22168583;0.0008847;98.6865;107.1709;234.8864;125.1485;3.7015E-5;3.8E-7;0;Amateur
14.22168591;0.000885;98.6865;107.2403;234.6541;125.381;3.6549E-5;3.7E-7;0;Amateur
14.22168778;0.0008885;98.6865;108.2107;231.4708;128.5674;3.7017E-5;3.8E-7;0;Amateur
14.22168796;0.0008891;98.6865;108.28;231.2207;128.8177;3.6935E-5;3.8E-7;0;Amateur
14.22168962;0.0008929;98.6865;109.1811;228.2819;131.7596;3.697E-5;3.8E-7;0;Amateur
14.22169087;0.0008954;98.6865;109.7356;226.4563;133.5871;3.8599E-5;4.2E-7;0;Amateur
14.22169175;0.0008987;98.6864;110.1516;225.0567;134.9882;4.0264E-5;4.6E-7;0;Amateur
14.22169293;0.0009006;98.6864;110.7754;223.0845;136.9629;4.2073E-5;5.0E-7;0;Amateur
14.22169372;0.0009024;98.6864;111.1913;221.7884;138.2605;4.3455E-5;5.3E-7;0;Amateur
14.22169513;0.0009044;98.6864;111.8152;219.8403;140.2111;4.6097E-5;5.8E-7;0;Amateur
14.221696;0.0009062;98.6864;112.1618;218.7403;141.3126;4.7743E-5;6.2E-7;0;Amateur
14.22169805;0.0009095;98.6863;113.0629;215.9156;144.1411;4.9527E-5;6.6E-7;0;Amateur
14.2216983;0.0009096;98.6863;113.1323;215.7089;144.3481;4.979E-5;6.7E-7;0;Amateur
14.22170039;0.0009145;98.6862;114.1027;212.6585;147.4028;4.9227E-5;6.5E-7;0;Amateur
14.22170053;0.0009149;98.6862;114.1721;212.4437;147.618;4.8889E-5;6.5E-7;0;Amateur
14.22170231;0.0009219;98.6862;115.0731;209.5364;150.5294;4.8084E-5;6.3E-7;0;Amateur
14.22170326;0.000924;98.6862;115.697;207.6161;152.4527;4.63E-5;5.9E-7;0;Amateur
14.22170411;0.0009268;98.6862;116.1129;206.3332;153.7375;4.6114E-5;5.9E-7;0;Amateur
14.22170624;0.0009327;98.6861;117.0833;203.3183;156.7572;4.4911E-5;5.6E-7;0;Amateur
14.22170755;0.0009367;98.6861;117.7072;201.3742;158.7045;4.273E-5;5.1E-7;0;Amateur
14.22170856;0.0009389;98.6861;118.1231;200.1229;159.958;4.2308E-5;5.0E-7;0;Amateur
14.22171017;0.0009448;98.6861;119.0242;197.3786;162.7069;3.9281E-5;4.3E-7;0;Amateur
14.22171106;0.0009477;98.6861;119.648;195.4854;164.6035;3.7114E-5;3.9E-7;0;Amateur
14.22171151;0.0009498;98.686;119.9946;194.4441;165.6466;3.6684E-5;3.8E-7;0;Amateur
14.22171316;0.0009551;98.686;120.965;191.5164;168.5796;3.6849E-5;3.8E-7;0;Amateur
14.22171324;0.0009555;98.686;121.0343;191.3081;168.7883;3.6032E-5;3.6E-7;0;Amateur
14.22171492;0.000961;98.6859;122.0047;188.3923;171.7096;3.561E-5;3.5E-7;0;Amateur
14.22171496;0.0009613;98.6859;122.0741;188.183;171.9193;3.4911E-5;3.4E-7;0;Amateur
14.22171587;0.0009642;98.6859;122.6286;186.5149;173.5905;3.4441E-5;3.3E-7;0;Amateur
14.22171649;0.0009673;98.6859;122.9752;185.5047;174.6025;3.471E-5;3.3E-7;0;Amateur
14.22171768;0.000971;98.6859;123.5297;183.8494;176.261;3.634E-5;3.7E-7;0;Amateur
14.22171906;0.0009788;98.6858;124.5695;180.796;179.3204;3.691E-5;3.8E-7;0;Amateur
14.22171938;0.0009809;98.6858;124.8468;179.9924;180.1256;3.793E-5;4.0E-7;0;Amateur
14.22171951;0.0009815;98.6858;124.9161;179.7925;180.3259;3.7737E-5;4.0E-7;0;Amateur
14.22172153;0.0009859;98.6858;125.8865;176.9579;183.166;4.176E-5;4.9E-7;0;Amateur
14.22172176;0.0009865;98.6857;125.9558;176.7618;183.3625;4.2006E-5;5.0E-7;0;Amateur
14.22172357;0.0009927;98.6857;126.9262;173.9436;186.1864;4.221E-5;5.0E-7;0;Amateur
14.22172371;0.0009931;98.6857;126.9955;173.742;186.3883;4.1979E-5;4.9E-7;0;Amateur
14.22172534;0.0009981;98.6856;127.8966;171.1488;188.9867;4.2127E-5;5.0E-7;0;Amateur
14.22172639;0.0010021;98.6856;128.4511;169.5674;190.5713;4.1938E-5;4.9E-7;0;Amateur
14.22172695;0.0010045;98.6856;128.867;168.389;191.7521;4.1826E-5;4.9E-7;0;Amateur
14.22172825;0.0010086;98.6855;129.4908;166.5797;193.5651;4.2665E-5;5.1E-7;0;Amateur
14.221729;0.0010109;98.6855;129.9067;165.4021;194.7451;4.3039E-5;5.2E-7;0;Amateur
14.22173081;0.0010166;98.6854;130.8077;162.8425;197.3098;4.343E-5;5.3E-7;0;Amateur
14.22173103;0.0010168;98.6854;130.8771;162.6452;197.5075;4.3454E-5;5.3E-7;0;Amateur
14.22173255;0.0010208;98.6854;131.5009;160.8778;199.2785;4.3322E-5;5.2E-7;0;Amateur
14.22173325;0.0010236;98.6854;131.8474;159.9325;200.2257;4.2805E-5;5.1E-7;0;Amateur
14.2217334;0.0010238;98.6854;131.9167;159.7316;200.427;4.2466E-5;5.1E-7;0;Amateur
14.22173442;0.001027;98.6854;132.4713;158.1646;201.9971;4.0818E-5;4.7E-7;0;Amateur
14.22173493;0.001029;98.6854;132.8178;157.2061;202.9575;3.9955E-5;4.5E-7;0;Amateur
14.22173606;0.0010336;98.6854;133.4416;155.4737;204.6934;3.8641E-5;4.2E-7;0;Amateur
14.22173658;0.001036;98.6853;133.7882;154.5468;205.6222;3.8111E-5;4.1E-7;0;Amateur
14.22173835;0.0010401;98.6853;134.7586;151.8105;208.3638;3.8098E-5;4.1E-7;0;Amateur
14.22173862;0.0010407;98.6853;134.8279;151.6244;208.5502;3.8539E-5;4.2E-7;0;Amateur
14.22174047;0.0010459;98.6853;135.7982;148.9294;211.2504;3.7516E-5;4.0E-7;0;Amateur
14.22174073;0.0010462;98.6853;135.8676;148.7356;211.4446;3.7847E-5;4.0E-7;0;Amateur
14.2217424;0.001051;98.6853;136.7686;146.2724;213.9124;3.6953E-5;3.8E-7;0;Amateur
14.22174342;0.0010539;98.6853;137.3231;144.7334;215.4543;3.6558E-5;3.7E-7;0;Amateur
14.221745;0.0010585;98.6852;138.4321;141.6734;218.5198;3.7566E-5;4.0E-7;0;Amateur
14.22174723;0.0010673;98.6851;139.6797;138.4127;221.7865;3.9422E-5;4.4E-7;0;Amateur
14.22174747;0.0010676;98.685;139.749;138.2328;221.9667;3.9768E-5;4.5E-7;0;Amateur
14.22174868;0.0010704;98.685;140.3036;136.7062;223.4959;4.0786E-5;4.7E-7;0;Amateur
14.22174998;0.001072;98.685;140.7194;135.5905;224.6134;4.4879E-5;5.6E-7;0;Amateur
14.22175003;0.0010728;98.685;140.7887;135.4164;224.7878;4.423E-5;5.5E-7;0;Amateur
14.22175154;0.0010744;98.685;141.3432;133.8669;226.3398;4.6969E-5;6.1E-7;0;Amateur
14.22175201;0.0010761;98.6849;141.6898;132.9887;227.2194;4.5113E-5;5.6E-7;0;Amateur
14.22175332;0.0010788;98.6849;142.2443;131.51;228.7006;4.6136E-5;5.9E-7;0;Amateur
14.22175406;0.0010805;98.6849;142.6602;130.4331;229.779;4.6567E-5;6.0E-7;0;Amateur
14.22175542;0.0010821;98.6849;143.2146;128.8678;231.3467;4.9432E-5;6.6E-7;0;Amateur
14.22175785;0.0010859;98.6848;144.185;126.2367;233.9816;5.2041E-5;7.2E-7;0;Amateur
14.22176078;0.0010909;98.6847;145.6405;122.3738;237.8497;4.6089E-5;5.9E-7;0;Amateur
14.22176108;0.0010905;98.6847;145.7098;122.1242;238.0995;4.6489E-5;6.0E-7;0;Amateur
14.22176271;0.0010938;98.6847;146.6108;119.7639;240.4628;4.2542E-5;5.1E-7;0;Amateur
14.22176393;0.0010963;98.6846;147.1653;118.3523;241.8762;4.1323E-5;4.8E-7;0;Amateur
14.22176455;0.0010972;98.6846;147.5811;117.2521;242.9775;4.0151E-5;4.5E-7;0;Amateur
14.22176636;0.0010995;98.6846;148.5515;114.6895;245.5429;3.8893E-5;4.3E-7;0;Amateur
